{
  "type": "FeatureCollection",
  "features": [
    {
      "type": "Feature",
      "properties": {
        "norad_id": 33901,
        "name": "COSMOS 2251 DEB",
        "group": "cosmos-2251-debris",
        "lat": -73.76061365540076,
        "lon": -22.326240337041902,
        "alt_km": 522.0181135889279,
        "timestamp": "2025-12-04T10:51:50.498810+00:00",
        "meta_object_name": "COSMOS 2251 DEB",
        "meta_object_id": "1993-036DE",
        "meta_epoch": "2025-12-03T22:34:35.927040",
        "meta_mean_motion": 15.14259007,
        "meta_eccentricity": 0.0034888,
        "meta_inclination": 73.773,
        "meta_ra_of_asc_node": 67.8984,
        "meta_arg_of_pericenter": 200.0074,
        "meta_mean_anomaly": 159.9754,
        "meta_ephemeris_type": 0,
        "meta_classification_type": "U",
        "meta_norad_cat_id": 33901,
        "meta_element_set_no": 999,
        "meta_rev_at_epoch": 89380,
        "meta_bstar": 0.0067583,
        "meta_mean_motion_dot": 0.00127634,
        "meta_mean_motion_ddot": 0,
        "tle_line1": "1 33901U 93036DE  25337.94069360  .00127634  00000+0  67583-2 0  9997",
        "tle_line2": "2 33901  73.7730  67.8984 0034888 200.0074 159.9754 15.14259007893803"
      },
      "geometry": {
        "type": "Point",
        "coordinates": [
          -22.326240337041902,
          -73.76061365540076
        ]
      }
    },
    {
      "type": "Feature",
      "properties": {
        "norad_id": 33905,
        "name": "COSMOS 2251 DEB",
        "group": "cosmos-2251-debris",
        "lat": -25.243217014914766,
        "lon": 159.81651902009554,
        "alt_km": 738.4646520163569,
        "timestamp": "2025-12-04T10:51:50.498820+00:00",
        "meta_object_name": "COSMOS 2251 DEB",
        "meta_object_id": "1993-036DJ",
        "meta_epoch": "2025-12-04T00:10:51.722976",
        "meta_mean_motion": 14.35332439,
        "meta_eccentricity": 0.0059427,
        "meta_inclination": 73.8867,
        "meta_ra_of_asc_node": 332.8065,
        "meta_arg_of_pericenter": 223.9425,
        "meta_mean_anomaly": 203.3639,
        "meta_ephemeris_type": 0,
        "meta_classification_type": "U",
        "meta_norad_cat_id": 33905,
        "meta_element_set_no": 999,
        "meta_rev_at_epoch": 87562,
        "meta_bstar": 0.0014408,
        "meta_mean_motion_dot": 4.189e-05,
        "meta_mean_motion_ddot": 0,
        "tle_line1": "1 33905U 93036DJ  25338.00754309  .00004189  00000+0  14408-2 0  9990",
        "tle_line2": "2 33905  73.8867 332.8065 0059427 223.9425 203.3639 14.35332439875623"
      },
      "geometry": {
        "type": "Point",
        "coordinates": [
          159.81651902009554,
          -25.243217014914766
        ]
      }
    },
    {
      "type": "Feature",
      "properties": {
        "norad_id": 33906,
        "name": "COSMOS 2251 DEB",
        "group": "cosmos-2251-debris",
        "lat": 11.956078992358568,
        "lon": 153.74253233581425,
        "alt_km": 728.3751607049862,
        "timestamp": "2025-12-04T10:51:50.498831+00:00",
        "meta_object_name": "COSMOS 2251 DEB",
        "meta_object_id": "1993-036DK",
        "meta_epoch": "2025-12-04T02:08:06.455040",
        "meta_mean_motion": 14.56836715,
        "meta_eccentricity": 0.0036329,
        "meta_inclination": 74.0306,
        "meta_ra_of_asc_node": 337.9094,
        "meta_arg_of_pericenter": 8.9007,
        "meta_mean_anomaly": 51.6818,
        "meta_ephemeris_type": 0,
        "meta_classification_type": "U",
        "meta_norad_cat_id": 33906,
        "meta_element_set_no": 999,
        "meta_rev_at_epoch": 87882,
        "meta_bstar": 0.0042554,
        "meta_mean_motion_dot": 0.00019263,
        "meta_mean_motion_ddot": 0,
        "tle_line1": "1 33906U 93036DK  25338.08896360  .00019263  00000+0  42554-2 0  9995",
        "tle_line2": "2 33906  74.0306 337.9094 0036329   8.9007  51.6818 14.56836715878823"
      },
      "geometry": {
        "type": "Point",
        "coordinates": [
          153.74253233581425,
          11.956078992358568
        ]
      }
    },
    {
      "type": "Feature",
      "properties": {
        "norad_id": 33907,
        "name": "COSMOS 2251 DEB",
        "group": "cosmos-2251-debris",
        "lat": -30.517972173496045,
        "lon": -121.60451751676364,
        "alt_km": 816.3177920736834,
        "timestamp": "2025-12-04T10:51:50.498841+00:00",
        "meta_object_name": "COSMOS 2251 DEB",
        "meta_object_id": "1993-036DL",
        "meta_epoch": "2025-12-02T16:29:31.533792",
        "meta_mean_motion": 14.30354915,
        "meta_eccentricity": 0.011318,
        "meta_inclination": 74.0705,
        "meta_ra_of_asc_node": 51.9078,
        "meta_arg_of_pericenter": 110.3545,
        "meta_mean_anomaly": 12.7079,
        "meta_ephemeris_type": 0,
        "meta_classification_type": "U",
        "meta_norad_cat_id": 33907,
        "meta_element_set_no": 999,
        "meta_rev_at_epoch": 86436,
        "meta_bstar": 0.0022180325,
        "meta_mean_motion_dot": 6.159e-05,
        "meta_mean_motion_ddot": 0,
        "tle_line1": "1 33907U 93036DL  25336.68717053  .00006159  00000+0  22180-2 0  9994",
        "tle_line2": "2 33907  74.0705  51.9078 0113180 110.3545  12.7079 14.30354915864368"
      },
      "geometry": {
        "type": "Point",
        "coordinates": [
          -121.60451751676364,
          -30.517972173496045
        ]
      }
    },
    {
      "type": "Feature",
      "properties": {
        "norad_id": 33908,
        "name": "COSMOS 2251 DEB",
        "group": "cosmos-2251-debris",
        "lat": -27.616260767868337,
        "lon": 49.195665157351364,
        "alt_km": 742.8584957766043,
        "timestamp": "2025-12-04T10:51:50.498852+00:00",
        "meta_object_name": "COSMOS 2251 DEB",
        "meta_object_id": "1993-036DM",
        "meta_epoch": "2025-12-04T03:01:56.640000",
        "meta_mean_motion": 14.0724019,
        "meta_eccentricity": 0.0223842,
        "meta_inclination": 73.8383,
        "meta_ra_of_asc_node": 221.0486,
        "meta_arg_of_pericenter": 246.0968,
        "meta_mean_anomaly": 111.6576,
        "meta_ephemeris_type": 0,
        "meta_classification_type": "U",
        "meta_norad_cat_id": 33908,
        "meta_element_set_no": 999,
        "meta_rev_at_epoch": 85352,
        "meta_bstar": 0.0031098,
        "meta_mean_motion_dot": 6.53e-05,
        "meta_mean_motion_ddot": 0,
        "tle_line1": "1 33908U 93036DM  25338.12635000  .00006530  00000+0  31098-2 0  9998",
        "tle_line2": "2 33908  73.8383 221.0486 0223842 246.0968 111.6576 14.07240190853524"
      },
      "geometry": {
        "type": "Point",
        "coordinates": [
          49.195665157351364,
          -27.616260767868337
        ]
      }
    },
    {
      "type": "Feature",
      "properties": {
        "norad_id": 33911,
        "name": "COSMOS 2251 DEB",
        "group": "cosmos-2251-debris",
        "lat": 46.348134243128186,
        "lon": -19.411172552610687,
        "alt_km": 632.246103388984,
        "timestamp": "2025-12-04T10:51:50.498863+00:00",
        "meta_object_name": "COSMOS 2251 DEB",
        "meta_object_id": "1993-036DQ",
        "meta_epoch": "2025-12-03T16:53:58.002720",
        "meta_mean_motion": 14.74461944,
        "meta_eccentricity": 0.0014555,
        "meta_inclination": 74.0898,
        "meta_ra_of_asc_node": 179.4419,
        "meta_arg_of_pericenter": 125.4327,
        "meta_mean_anomaly": 354.0884,
        "meta_ephemeris_type": 0,
        "meta_classification_type": "U",
        "meta_norad_cat_id": 33911,
        "meta_element_set_no": 999,
        "meta_rev_at_epoch": 88511,
        "meta_bstar": 0.0025840978,
        "meta_mean_motion_dot": 0.00017211,
        "meta_mean_motion_ddot": 0,
        "tle_line1": "1 33911U 93036DQ  25337.70414355  .00017211  00000+0  25841-2 0  9990",
        "tle_line2": "2 33911  74.0898 179.4419 0014555 125.4327 354.0884 14.74461944885113"
      },
      "geometry": {
        "type": "Point",
        "coordinates": [
          -19.411172552610687,
          46.348134243128186
        ]
      }
    },
    {
      "type": "Feature",
      "properties": {
        "norad_id": 33912,
        "name": "COSMOS 2251 DEB",
        "group": "cosmos-2251-debris",
        "lat": -21.167159291758587,
        "lon": -161.03016773947107,
        "alt_km": 719.7790427081427,
        "timestamp": "2025-12-04T10:51:50.498873+00:00",
        "meta_object_name": "COSMOS 2251 DEB",
        "meta_object_id": "1993-036DR",
        "meta_epoch": "2025-12-04T01:36:32.158368",
        "meta_mean_motion": 14.51818671,
        "meta_eccentricity": 0.0011629,
        "meta_inclination": 74.0339,
        "meta_ra_of_asc_node": 206.0606,
        "meta_arg_of_pericenter": 284.7882,
        "meta_mean_anomaly": 198.4658,
        "meta_ephemeris_type": 0,
        "meta_classification_type": "U",
        "meta_norad_cat_id": 33912,
        "meta_element_set_no": 999,
        "meta_rev_at_epoch": 88307,
        "meta_bstar": 0.0014567,
        "meta_mean_motion_dot": 5.844e-05,
        "meta_mean_motion_ddot": 0,
        "tle_line1": "1 33912U 93036DR  25338.06703887  .00005844  00000+0  14567-2 0  9994",
        "tle_line2": "2 33912  74.0339 206.0606 0011629 284.7882 198.4658 14.51818671883073"
      },
      "geometry": {
        "type": "Point",
        "coordinates": [
          -161.03016773947107,
          -21.167159291758587
        ]
      }
    }
  ]
}